{"type": "FeatureCollection", "features": [ {"type": "Feature", "properties": {"norad_id": 66633, "name": "STARLINK-35948", "group": "last-30-days", "lat": -52.881556164091876, "lon": 68.39199015032797, "alt_km": 452.59902607809454, "timestamp": "2025-12-20T11:30:27.104168+00:00", "meta": {"OBJECT_NAME": "STARLINK-35948", "OBJECT_ID": "2025-271S", "EPOCH": "2025-12-19T17:10:55.246080", "MEAN_MOTION": 15.39629537, "ECCENTRICITY": 0.00010441, "INCLINATION": 53.1596, "RA_OF_ASC_NODE": 154.1516, "ARG_OF_PERICENTER": 81.5844, "MEAN_ANOMALY": 278.5279, "EPHEMERIS_TYPE": 0, "CLASSIFICATION_TYPE": "U", "NORAD_CAT_ID": 66633, "ELEMENT_SET_NO": 999, "REV_AT_EPOCH": 528, "BSTAR": 0.0006790438, "MEAN_MOTION_DOT": 0.00026866, "MEAN_MOTION_DDOT": 0}, "tle": {"line1": "1 66633U 25271S   25353.71591720  .00026866  00000+0  67904-3 0  9997", "line2": "2 66633  53.1596 154.1516 0001044  81.5844 278.5279 15.39629537  5282"}}, "geometry": {"type": "Point", "coordinates": [68.39199015032797, -52.881556164091876]}}, {"type": "Feature", "properties": {"norad_id": 66634, "name": "STARLINK-35967", "group": "last-30-days", "lat": -43.67588646058915, "lon": 104.79001789270035, "alt_km": 452.0748205345908, "timestamp": "2025-12-20T11:30:27.104178+00:00", "meta": {"OBJECT_NAME": "STARLINK-35967", "OBJECT_ID": "2025-271T", "EPOCH": "2025-12-20T00:00:02.000160", "MEAN_MOTION": 15.39616609, "ECCENTRICITY": 9.88e-05, "INCLINATION": 53.1601, "RA_OF_ASC_NODE": 152.7618, "ARG_OF_PERICENTER": 59.4964, "MEAN_ANOMALY": 101.9399, "EPHEMERIS_TYPE": 0, "CLASSIFICATION_TYPE": "U", "NORAD_CAT_ID": 66634, "ELEMENT_SET_NO": 999, "REV_AT_EPOCH": 534, "BSTAR": 0.0003944, "MEAN_MOTION_DOT": 0.00015406, "MEAN_MOTION_DDOT": 0}, "tle": {"line1": "1 66634U 25271T   25354.00002315  .00015406  00000+0  39440-3 0  9990", "line2": "2 66634  53.1601 152.7618 0000988  59.4964 101.9399 15.39616609  5345"}}, "geometry": {"type": "Point", "coordinates": [104.79001789270035, -43.67588646058915]}}, {"type": "Feature", "properties": {"norad_id": 66635, "name": "STARLINK-35955", "group": "last-30-days", "lat": -6.566083973509775, "lon": 145.44961649772657, "alt_km": 449.09799016703437, "timestamp": "2025-12-20T11:30:27.104188+00:00", "meta": {"OBJECT_NAME": "STARLINK-35955", "OBJECT_ID": "2025-271U", "EPOCH": "2025-12-20T04:00:00.999072", "MEAN_MOTION": 15.39615013, "ECCENTRICITY": 0.0001118, "INCLINATION": 53.1598, "RA_OF_ASC_NODE": 151.8745, "ARG_OF_PERICENTER": 91.4353, "MEAN_ANOMALY": 325.7409, "EPHEMERIS_TYPE": 0, "CLASSIFICATION_TYPE": "U", "NORAD_CAT_ID": 66635, "ELEMENT_SET_NO": 999, "REV_AT_EPOCH": 543, "BSTAR": 6.2143e-05, "MEAN_MOTION_DOT": 2.087e-05, "MEAN_MOTION_DDOT": 0}, "tle": {"line1": "1 66635U 25271U   25354.16667823  .00002087  00000+0  62143-4 0  9997", "line2": "2 66635  53.1598 151.8745 0001118  91.4353 325.7409 15.39615013  5432"}}, "geometry": {"type": "Point", "coordinates": [145.44961649772657, -6.566083973509775]}}, {"type": "Feature", "properties": {"norad_id": 66636, "name": "STARLINK-35968", "group": "last-30-days", "lat": -26.544587647953563, "lon": 128.45579118280145, "alt_km": 451.0533097719799, "timestamp": "2025-12-20T11:30:27.104198+00:00", "meta": {"OBJECT_NAME": "STARLINK-35968", "OBJECT_ID": "2025-271V", "EPOCH": "2025-12-20T04:00:00.999072", "MEAN_MOTION": 15.39615018, "ECCENTRICITY": 7.3e-05, "INCLINATION": 53.1602, "RA_OF_ASC_NODE": 151.9248, "ARG_OF_PERICENTER": 79.8732, "MEAN_ANOMALY": 311.5465, "EPHEMERIS_TYPE": 0, "CLASSIFICATION_TYPE": "U", "NORAD_CAT_ID": 66636, "ELEMENT_SET_NO": 999, "REV_AT_EPOCH": 543, "BSTAR": 6.5529e-05, "MEAN_MOTION_DOT": 2.223e-05, "MEAN_MOTION_DDOT": 0}, "tle": {"line1": "1 66636U 25271V   25354.16667823  .00002223  00000+0  65529-4 0  9991", "line2": "2 66636  53.1602 151.9248 0000730  79.8732 311.5465 15.39615018  5438"}}, "geometry": {"type": "Point", "coordinates": [128.45579118280145, -26.544587647953563]}}, {"type": "Feature", "properties": {"norad_id": 66637, "name": "STARLINK-35953", "group": "last-30-days", "lat": 13.95536780892206, "lon": 161.08556935705752, "alt_km": 445.8201824040443, "timestamp": "2025-12-20T11:30:27.104208+00:00", "meta": {"OBJECT_NAME": "STARLINK-35953", "OBJECT_ID": "2025-271W", "EPOCH": "2025-12-20T04:00:00.999072", "MEAN_MOTION": 15.39612743, "ECCENTRICITY": 0.0001005, "INCLINATION": 53.1593, "RA_OF_ASC_NODE": 151.8224, "ARG_OF_PERICENTER": 77.1064, "MEAN_ANOMALY": 5.8214, "EPHEMERIS_TYPE": 0, "CLASSIFICATION_TYPE": "U", "NORAD_CAT_ID": 66637, "ELEMENT_SET_NO": 999, "REV_AT_EPOCH": 543, "BSTAR": 9.7583e-05, "MEAN_MOTION_DOT": 3.505e-05, "MEAN_MOTION_DDOT": 0}, "tle": {"line1": "1 66637U 25271W   25354.16667823  .00003505  00000+0  97583-4 0  9991", "line2": "2 66637  53.1593 151.8224 0001005  77.1064   5.8214 15.39612743  5433"}}, "geometry": {"type": "Point", "coordinates": [161.08556935705752, 13.95536780892206]}}, {"type": "Feature", "properties": {"norad_id": 66638, "name": "STARLINK-35972", "group": "last-30-days", "lat": 48.35191383783869, "lon": -152.2925408982746, "alt_km": 440.2345908303505, "timestamp": "2025-12-20T11:30:27.104219+00:00", "meta": {"OBJECT_NAME": "STARLINK-35972", "OBJECT_ID": "2025-271X", "EPOCH": "2025-12-20T04:00:00.999072", "MEAN_MOTION": 15.39564528, "ECCENTRICITY": 0.0001228, "INCLINATION": 53.159, "RA_OF_ASC_NODE": 151.7202, "ARG_OF_PERICENTER": 108.0432, "MEAN_ANOMALY": 26.3865, "EPHEMERIS_TYPE": 0, "CLASSIFICATION_TYPE": "U", "NORAD_CAT_ID": 66638, "ELEMENT_SET_NO": 999, "REV_AT_EPOCH": 543, "BSTAR": 0.00046577, "MEAN_MOTION_DOT": 0.00018242, "MEAN_MOTION_DDOT": 0}, "tle": {"line1": "1 66638U 25271X   25354.16667823  .00018242  00000+0  46577-3 0  9992", "line2": "2 66638  53.1590 151.7202 0001228 108.0432  26.3865 15.39564528  5433"}}, "geometry": {"type": "Point", "coordinates": [-152.2925408982746, 48.35191383783869]}}, {"type": "Feature", "properties": {"norad_id": 66639, "name": "STARLINK-35908", "group": "last-30-days", "lat": 52.90592740604193, "lon": -112.34566850454225, "alt_km": 435.99399749274835, "timestamp": "2025-12-20T11:30:27.104246+00:00", "meta": {"OBJECT_NAME": "STARLINK-35908", "OBJECT_ID": "2025-271Y", "EPOCH": "2025-12-20T04:00:00.999072", "MEAN_MOTION": 15.42362248, "ECCENTRICITY": 0.000136, "INCLINATION": 53.1595, "RA_OF_ASC_NODE": 151.6724, "ARG_OF_PERICENTER": 102.9247, "MEAN_ANOMALY": 54.6677, "EPHEMERIS_TYPE": 0, "CLASSIFICATION_TYPE": "U", "NORAD_CAT_ID": 66639, "ELEMENT_SET_NO": 999, "REV_AT_EPOCH": 543, "BSTAR": -0.060891, "MEAN_MOTION_DOT": -0.02375174, "MEAN_MOTION_DDOT": 0}, "tle": {"line1": "1 66639U 25271Y   25354.16667823 -.02375174  00000+0 -60891-1 0  9990", "line2": "2 66639  53.1595 151.6724 0001360 102.9247  54.6677 15.42362248  5435"}}, "geometry": {"type": "Point", "coordinates": [-112.34566850454225, 52.90592740604193]}}, {"type": "Feature", "properties": {"norad_id": 66640, "name": "STARLINK-35921", "group": "last-30-days", "lat": 33.29478711391813, "lon": 179.79458679894134, "alt_km": 442.79217063287615, "timestamp": "2025-12-20T11:30:27.104257+00:00", "meta": {"OBJECT_NAME": "STARLINK-35921", "OBJECT_ID": "2025-271Z", "EPOCH": "2025-12-20T04:00:00.999072", "MEAN_MOTION": 15.3961487, "ECCENTRICITY": 8.05e-05, "INCLINATION": 53.1588, "RA_OF_ASC_NODE": 151.7708, "ARG_OF_PERICENTER": 101.9779, "MEAN_ANOMALY": 6.7008, "EPHEMERIS_TYPE": 0, "CLASSIFICATION_TYPE": "U", "NORAD_CAT_ID": 66640, "ELEMENT_SET_NO": 999, "REV_AT_EPOCH": 543, "BSTAR": 5.5229e-05, "MEAN_MOTION_DOT": 1.81e-05, "MEAN_MOTION_DDOT": 0}, "tle": {"line1": "1 66640U 25271Z   25354.16667823  .00001810  00000+0  55229-4 0  9993", "line2": "2 66640  53.1588 151.7708 0000805 101.9779   6.7008 15.39614870  5437"}}, "geometry": {"type": "Point", "coordinates": [179.79458679894134, 33.29478711391813]}}, {"type": "Feature", "properties": {"norad_id": 66641, "name": "STARLINK-35923", "group": "last-30-days", "lat": 41.572423338411504, "lon": -71.5484732509803, "alt_km": 422.2415307174697, "timestamp": "2025-12-20T11:30:27.104268+00:00", "meta": {"OBJECT_NAME": "STARLINK-35923", "OBJECT_ID": "2025-271AA", "EPOCH": "2025-12-19T22:34:00.655968", "MEAN_MOTION": 15.46730788, "ECCENTRICITY": 0.000193, "INCLINATION": 53.1592, "RA_OF_ASC_NODE": 152.7027, "ARG_OF_PERICENTER": 3.5243, "MEAN_ANOMALY": 356.5778, "EPHEMERIS_TYPE": 0, "CLASSIFICATION_TYPE": "U", "NORAD_CAT_ID": 66641, "ELEMENT_SET_NO": 999, "REV_AT_EPOCH": 532, "BSTAR": -0.0051441, "MEAN_MOTION_DOT": -0.00253595, "MEAN_MOTION_DDOT": 0}, "tle": {"line1": "1 66641U 25271AA  25353.94028537 -.00253595  00000+0 -51441-2 0  9993", "line2": "2 66641  53.1592 152.7027 0001930   3.5243 356.5778 15.46730788  5324"}}, "geometry": {"type": "Point", "coordinates": [-71.5484732509803, 41.572423338411504]}}, {"type": "Feature", "properties": {"norad_id": 66642, "name": "STARLINK-35926", "group": "last-30-days", "lat": 41.256257731579225, "lon": -70.98686805371935, "alt_km": 417.8831327050366, "timestamp": "2025-12-20T11:30:27.104281+00:00", "meta": {"OBJECT_NAME": "STARLINK-35926", "OBJECT_ID": "2025-271AB", "EPOCH": "2025-12-19T17:55:19.162848", "MEAN_MOTION": 15.47687763, "ECCENTRICITY": 0.0001998, "INCLINATION": 53.1589, "RA_OF_ASC_NODE": 153.6296, "ARG_OF_PERICENTER": 136.7356, "MEAN_ANOMALY": 223.381, "EPHEMERIS_TYPE": 0, "CLASSIFICATION_TYPE": "U", "NORAD_CAT_ID": 66642, "ELEMENT_SET_NO": 999, "REV_AT_EPOCH": 525, "BSTAR": -0.0052165, "MEAN_MOTION_DOT": -0.0026545, "MEAN_MOTION_DDOT": 0}, "tle": {"line1": "1 66642U 25271AB  25353.74674957 -.00265450  00000+0 -52165-2 0  9992", "line2": "2 66642  53.1589 153.6296 0001998 136.7356 223.3810 15.47687763  5252"}}, "geometry": {"type": "Point", "coordinates": [-70.98686805371935, 41.256257731579225]}}]}